STARLINK-31123          
1 58775U 24011L   26068.23965336  .00001211  00000+0  53020-4 0  9997
2 58775  53.1618  15.6065 0001045  65.6642 294.4468 15.30193616120207
TRANSPORTER-12 OBJECT AZ
1 62656U 25009AZ  26068.71026235  .00016057  00000+0  54903-3 0  9991
2 62656  97.3981 151.9913 0000987  45.3581 314.7740 15.30349724 63792
